NORAD_CAT_ID,OBJECT_NAME,OBJECT_TYPE,EPOCH,MEAN_MOTION,ECCENTRICITY,INCLINATION,RA_OF_ASC_NODE,ARG_OF_PERICENTER,MEAN_ANOMALY,BSTAR,MEAN_MOTION_DOT,MEAN_MOTION_DDOT,TLE_LINE0,TLE_LINE1,TLE_LINE2,SEMIMAJOR_AXIS,PERIOD,APOGEE,PERIGEE,DECAYED
53706.0,STARLINK-4716,PAYLOAD,2023-03-08 04:00:19,15.08821775,0.0001174,53.2153,131.1971,116.1281,243.9832,0.0034391,0.00054844,0.0,0 STARLINK-4716,1 53706U 22107G   23067.16689346  .00054844  00000-0  34391-2 0  9991,2 53706  53.2153 131.1971 0001174 116.1281 243.9832 15.08821775 28418,6917.936,95.439,540.613,538.989,0.0
53706.0,STARLINK-4716,PAYLOAD,2023-03-08 21:29:34,15.08841409,0.0002884,53.2159,127.9263,81.0703,279.0616,0.0046523,0.00074543,0.0,0 STARLINK-4716,1 53706U 22107G   23067.89554169  .00074543  00000-0  46523-2 0  9993,2 53706  53.2159 127.9263 0002884  81.0703 279.0616 15.08841409 28527,6917.876,95.437,541.736,537.746,0.0
53706.0,STARLINK-4716,PAYLOAD,2023-03-09 10:12:39,15.088592,0.0001618,53.2165,125.5474,92.6102,267.5076,0.0017115,0.0002707,0.0,0 STARLINK-4716,1 53706U 22107G   23068.42545335  .00027070  00000-0  17115-2 0  9996,2 53706  53.2165 125.5474 0001618  92.6102 267.5076 15.08859200 28606,6917.822,95.436,540.806,538.567,0.0
53706.0,STARLINK-4716,PAYLOAD,2023-03-09 21:20:20,15.08862527,0.0001904,53.2166,123.4676,74.8898,285.2304,0.0010245,0.00016065,0.0,0 STARLINK-4716,1 53706U 22107G   23068.88913059  .00016065  00000-0  10245-2 0  9997,2 53706  53.2166 123.4676 0001904  74.8898 285.2304 15.08862527 29428,6917.812,95.436,540.994,538.359,0.0
53706.0,STARLINK-4716,PAYLOAD,2023-03-10 10:03:25,15.08861971,0.0001204,53.2152,121.088,99.1672,260.9456,0.00049868,7.662e-05,0.0,0 STARLINK-4716,1 53706U 22107G   23069.41904256  .00007662  00000-0  49868-3 0  9993,2 53706  53.2152 121.0880 0001204  99.1672 260.9456 15.08861971 28752,6917.813,95.436,540.511,538.845,0.0
53706.0,STARLINK-4716,PAYLOAD,2023-03-11 06:43:26,15.08835599,0.0001459,53.2165,117.2205,108.4521,251.6629,-4.733e-05,-1.041e-05,0.0,0 STARLINK-4716,1 53706U 22107G   23070.28017316 -.00001041  00000-0 -47330-4 0  9992,2 53706  53.2165 117.2205 0001459 108.4521 251.6629 15.08835599 28883,6917.894,95.438,540.768,538.75,0.0
53706.0,STARLINK-4716,PAYLOAD,2023-03-11 13:04:59,15.08837936,0.0001267,53.2161,116.0312,92.0116,268.1022,0.00010168,1.331e-05,0.0,0 STARLINK-4716,1 53706U 22107G   23070.54513444  .00001331  00000-0  10168-3 0  9992,2 53706  53.2161 116.0312 0001267  92.0116 268.1022 15.08837936 29675,6917.887,95.438,540.628,538.875,0.0
53706.0,STARLINK-4716,PAYLOAD,2023-03-11 14:40:22,15.08838483,0.0001239,53.2166,115.7326,108.258,251.8547,0.00018226,2.614e-05,0.0,0 STARLINK-4716,1 53706U 22107G   23070.61137404  .00002614  00000-0  18226-3 0  9996,2 53706  53.2166 115.7326 0001239 108.2580 251.8547 15.08838483 29685,6917.885,95.438,540.607,538.893,0.0
53706.0,STARLINK-4716,PAYLOAD,2023-03-12 11:20:24,15.08844594,0.0001577,53.2168,111.8683,109.8635,250.2527,0.0015984,0.00025245,0.0,0 STARLINK-4716,1 53706U 22107G   23071.47250034  .00025245  00000-0  15984-2 0  9998,2 53706  53.2168 111.8683 0001577 109.8635 250.2527 15.08844594 29066,6917.866,95.437,540.822,538.64,0.0
53706.0,STARLINK-4716,PAYLOAD,2023-03-12 12:55:47,15.08856959,0.0001317,53.2164,111.5712,92.9869,267.1273,0.0020106,0.00031871,0.0,0 STARLINK-4716,1 53706U 22107G   23071.53873956  .00031871  00000-0  20106-2 0  9993,2 53706  53.2164 111.5712 0001317  92.9869 267.1273 15.08856959 29822,6917.829,95.436,540.605,538.782,0.0
53706.0,STARLINK-4716,PAYLOAD,2023-03-13 11:11:10,15.08856586,0.0001016,53.2163,107.4081,112.2511,247.8589,0.0010333,0.00016203,0.0,0 STARLINK-4716,1 53706U 22107G   23072.46609390  .00016203  00000-0  10333-2 0  9998,2 53706  53.2163 107.4081 0001016 112.2511 247.8589 15.08856586 29214,6917.83,95.437,540.398,538.992,0.0
53706.0,STARLINK-4716,PAYLOAD,2023-03-13 12:46:33,15.08860343,0.0001185,53.2162,107.1112,105.5813,254.531,0.0011319,0.00017782,0.0,0 STARLINK-4716,1 53706U 22107G   23072.53233377  .00017782  00000-0  11319-2 0  9992,2 53706  53.2162 107.1112 0001185 105.5813 254.5310 15.08860343 29978,6917.818,95.436,540.503,538.863,0.0
53706.0,STARLINK-4716,PAYLOAD,2023-03-14 03:05:02,15.08832201,0.000167,53.2158,104.4349,94.3161,265.8022,0.0024414,0.00038773,0.0,0 STARLINK-4716,1 53706U 22107G   23073.12849966  .00038773  00000-0  24414-2 0  9998,2 53706  53.2158 104.4349 0001670  94.3161 265.8022 15.08832201 29310,6917.904,95.438,540.925,538.614,0.0
53706.0,STARLINK-4716,PAYLOAD,2023-03-14 09:26:34,15.08840573,0.0001501,53.216,103.2449,98.2983,261.8179,0.0011243,0.00017651,0.0,0 STARLINK-4716,1 53706U 22107G   23073.39345926  .00017651  00000-0  11243-2 0  9992,2 53706  53.2160 103.2449 0001501  98.2983 261.8179 15.08840573 29353,6917.879,95.438,540.782,538.705,0.0
53706.0,STARLINK-4716,PAYLOAD,2023-03-14 18:58:53,15.08852509,0.0001591,53.2162,101.4611,92.7154,267.4021,0.0012529,0.00019715,0.0,0 STARLINK-4716,1 53706U 22107G   23073.79089926  .00019715  00000-0  12529-2 0  9992,2 53706  53.2162 101.4611 0001591  92.7154 267.4021 15.08852509 30165,6917.842,95.437,540.808,538.607,0.0
53706.0,STARLINK-4716,PAYLOAD,2023-03-15 10:52:44,15.08867046,0.0001768,53.217,98.4871,93.0247,267.0948,0.00087317,0.00013646,0.0,0 STARLINK-4716,1 53706U 22107G   23074.45329137  .00013646  00000-0  87317-3 0  9992,2 53706  53.2170  98.4871 0001768  93.0247 267.0948 15.08867046 29513,6917.798,95.436,540.886,538.44,0.0
53706.0,STARLINK-4716,PAYLOAD,2023-03-15 18:49:40,15.08853653,0.0001745,53.2175,96.9998,91.8819,268.2373,0.00038468,5.842e-05,0.0,0 STARLINK-4716,1 53706U 22107G   23074.78449228  .00005842  00000-0  38468-3 0  9994,2 53706  53.2175  96.9998 0001745  91.8819 268.2373 15.08853653 29566,6917.839,95.437,540.911,538.496,0.0
53706.0,STARLINK-4716,PAYLOAD,2023-03-16 05:57:22,15.08838794,0.0001101,53.2178,94.9195,94.1246,265.9872,-3.1614e-05,-7.91e-06,0.0,0 STARLINK-4716,1 53706U 22107G   23075.24817259 -.00000791  00000-0 -31614-4 0  9996,2 53706  53.2178  94.9195 0001101  94.1246 265.9872 15.08838794 29637,6917.884,95.438,540.511,538.987,0.0
53706.0,STARLINK-4716,PAYLOAD,2023-03-16 10:43:31,15.08838129,0.0001761,53.2186,94.024,100.6755,259.4436,2.0239e-05,3.4e-07,0.0,0 STARLINK-4716,1 53706U 22107G   23075.44689446  .00000034  00000-0  20239-4 0  9992,2 53706  53.2186  94.0240 0001761 100.6755 259.4436 15.08838129 30412,6917.886,95.438,540.969,538.533,0.0
53706.0,STARLINK-4716,PAYLOAD,2023-03-16 18:40:27,15.08830072,0.0001781,53.2184,92.5355,100.1018,260.0175,-0.00018657,-3.255e-05,0.0,0 STARLINK-4716,1 53706U 22107G   23075.77809960 -.00003255  00000-0 -18657-3 0  9993,2 53706  53.2184  92.5355 0001781 100.1018 260.0175 15.08830072 29717,6917.911,95.438,541.008,538.544,0.0
53706.0,STARLINK-4716,PAYLOAD,2023-03-17 12:09:42,15.08838962,0.0001324,53.218,89.2671,89.3332,270.7812,-6.1748e-05,-1.27e-05,0.0,0 STARLINK-4716,1 53706U 22107G   23076.50673814 -.00001270  00000-0 -61748-4 0  9997,2 53706  53.2180  89.2671 0001324  89.3332 270.7812 15.08838962 29821,6917.884,95.438,540.664,538.833,0.0
53706.0,STARLINK-4716,PAYLOAD,2023-03-18 12:00:29,15.08861488,0.0001299,53.2171,84.8085,88.6306,271.4835,0.00077404,0.0001206,0.0,0 STARLINK-4716,1 53706U 22107G   23077.50033759  .00012060  00000-0  77404-3 0  9998,2 53706  53.2171  84.8085 0001299  88.6306 271.4835 15.08861488 29973,6917.815,95.436,540.578,538.781,0.0
53706.0,STARLINK-4716,PAYLOAD,2023-03-19 05:29:43,15.08849518,0.0001118,53.217,81.5372,94.9502,265.1618,0.0003015,4.515e-05,0.0,0 STARLINK-4716,1 53706U 22107G   23078.22897789  .00004515  00000-0  30150-3 0  9992,2 53706  53.2170  81.5372 0001118  94.9502 265.1618 15.08849518 30086,6917.851,95.437,540.49,538.943,0.0
53706.0,STARLINK-4716,PAYLOAD,2023-03-19 10:15:53,15.08850541,0.0001172,53.217,80.6451,95.5481,264.5645,0.00041134,6.267e-05,0.0,0 STARLINK-4716,1 53706U 22107G   23078.42769738  .00006267  00000-0  41134-3 0  9996,2 53706  53.2170  80.6451 0001172  95.5481 264.5645 15.08850541 30864,6917.848,95.437,540.524,538.902,0.0
53706.0,STARLINK-4716,PAYLOAD,2023-03-19 16:37:25,15.08837817,0.0001164,53.2171,79.4555,100.8527,259.2596,0.00017497,2.498e-05,0.0,0 STARLINK-4716,1 53706U 22107G   23078.69265789  .00002498  00000-0  17497-3 0  9999,2 53706  53.2171  79.4555 0001164 100.8527 259.2596 15.08837817 30157,6917.887,95.438,540.557,538.947,0.0
53706.0,STARLINK-4716,PAYLOAD,2023-03-20 08:31:17,15.08843034,0.0001131,53.217,76.4823,98.5833,261.5287,0.00081438,0.00012698,0.0,0 STARLINK-4716,1 53706U 22107G   23079.35506190  .00012698  00000-0  81438-3 0  9996,2 53706  53.2170  76.4823 0001131  98.5833 261.5287 15.08843034 31004,6917.871,95.437,540.519,538.954,0.0
53706.0,STARLINK-4716,PAYLOAD,2023-03-20 16:28:13,15.08836465,0.0001065,53.2168,74.9952,93.2726,266.8388,0.00020326,2.948e-05,0.0,0 STARLINK-4716,1 53706U 22107G   23079.68626334  .00002948  00000-0  20326-3 0  9991,2 53706  53.2168  74.9952 0001065  93.2726 266.8388 15.08836465 30308,6917.891,95.438,540.493,539.019,0.0
53706.0,STARLINK-4716,PAYLOAD,2023-03-21 08:22:04,15.08847915,0.0001067,53.217,72.0219,98.7986,261.3127,0.00034112,5.146e-05,0.0,0 STARLINK-4716,1 53706U 22107G   23080.34866101  .00005146  00000-0  34112-3 0  9995,2 53706  53.2170  72.0219 0001067  98.7986 261.3127 15.08847915 31153,6917.856,95.437,540.459,538.983,0.0
53706.0,STARLINK-4716,PAYLOAD,2023-03-22 05:02:05,15.08836673,0.0001248,53.2175,68.1564,92.8417,267.2718,4.8401e-05,4.82e-06,0.0,0 STARLINK-4716,1 53706U 22107G   23081.20978691  .00000482  00000-0  48401-4 0  9994,2 53706  53.2175  68.1564 0001248  92.8417 267.2718 15.08836673 30533,6917.891,95.438,540.619,538.892,0.0
53706.0,STARLINK-4716,PAYLOAD,2023-03-22 16:09:47,15.08839073,0.0001208,53.2178,66.0748,86.5992,273.5139,9.9717e-05,1.299e-05,0.0,0 STARLINK-4716,1 53706U 22107G   23081.67346767  .00001299  00000-0  99717-4 0  9991,2 53706  53.2178  66.0748 0001208  86.5992 273.5139 15.08839073 31356,6917.883,95.438,540.584,538.913,0.0
